{
  "type": "FeatureCollection",
  "metadata": {
    "note": "이 파일은 프로토타입 시연용 샘플 데이터입니다. 좌표는 지점(항/포구/저수지) 단위의 근사치이며, 실제 서비스 전에는 data.go.kr의 '전국낚시터정보표준데이터' 및 '갯바위낚시포인트' 공식 CSV로 교체해야 합니다. import 방법은 data/scripts/import_standard_csv.js 및 README 참고.",
    "source": "seed-sample (manually compiled, not an official dataset)",
    "generatedAt": "2026-08-30"
  },
  "features": [
    { "type": "Feature", "geometry": { "type": "Point", "coordinates": [129.1225, 35.0830] }, "properties": { "name": "오륙도 선착장", "waterType": "sea", "region": "부산", "species": ["감성돔", "볼락", "망상어"], "lifestyleFishing": null, "source": "seed-sample" } },
    { "type": "Feature", "geometry": { "type": "Point", "coordinates": [128.9696, 35.0486] }, "properties": { "name": "다대포 방파제", "waterType": "sea", "region": "부산", "species": ["숭어", "전어", "삼치"], "lifestyleFishing": true, "source": "seed-sample" } },
    { "type": "Feature", "geometry": { "type": "Point", "coordinates": [129.5686, 36.0761] }, "properties": { "name": "호미곳 방파제", "waterType": "sea", "region": "경북 포항", "species": ["감성돔", "참돔", "무늬오징어"], "lifestyleFishing": null, "source": "seed-sample" } },
    { "type": "Feature", "geometry": { "type": "Point", "coordinates": [129.4050, 36.4230] }, "properties": { "name": "강구항", "waterType": "sea", "region": "경북 영덕", "species": ["가자미", "우럭", "광어"], "lifestyleFishing": true, "source": "seed-sample" } },
    { "type": "Feature", "geometry": { "type": "Point", "coordinates": [129.4489, 36.6769] }, "properties": { "name": "후포항", "waterType": "sea", "region": "경북 울진", "species": ["우럭", "열기", "오징어"], "lifestyleFishing": null, "source": "seed-sample" } },
    { "type": "Feature", "geometry": { "type": "Point", "coordinates": [128.4342, 34.8377] }, "properties": { "name": "삼덕항", "waterType": "sea", "region": "경남 통영", "species": ["감성돔", "볼락", "망상어"], "lifestyleFishing": null, "source": "seed-sample" } },
    { "type": "Feature", "geometry": { "type": "Point", "coordinates": [128.5591, 34.7365] }, "properties": { "name": "저구항", "waterType": "sea", "region": "경남 거제", "species": ["감성돔", "록피시"], "lifestyleFishing": null, "source": "seed-sample" } },
    { "type": "Feature", "geometry": { "type": "Point", "coordinates": [127.7508, 34.7362] }, "properties": { "name": "돌산 방파제", "waterType": "sea", "region": "전남 여수", "species": ["감성돔", "농어"], "lifestyleFishing": true, "source": "seed-sample" } },
    { "type": "Feature", "geometry": { "type": "Point", "coordinates": [127.1797, 34.5256] }, "properties": { "name": "녹동항", "waterType": "sea", "region": "전남 고흥", "species": ["감성돔", "돌돔"], "lifestyleFishing": null, "source": "seed-sample" } },
    { "type": "Feature", "geometry": { "type": "Point", "coordinates": [126.6552, 34.3108] }, "properties": { "name": "완도항", "waterType": "sea", "region": "전남 완도", "species": ["감성돔", "전갱이"], "lifestyleFishing": null, "source": "seed-sample" } },
    { "type": "Feature", "geometry": { "type": "Point", "coordinates": [126.2889, 34.4772] }, "properties": { "name": "서망항", "waterType": "sea", "region": "전남 진도", "species": ["감성돔", "농어"], "lifestyleFishing": null, "source": "seed-sample" } },
    { "type": "Feature", "geometry": { "type": "Point", "coordinates": [126.3806, 34.7897] }, "properties": { "name": "북항(목포)", "waterType": "sea", "region": "전남 목포", "species": ["숭어", "전어"], "lifestyleFishing": true, "source": "seed-sample" } },
    { "type": "Feature", "geometry": { "type": "Point", "coordinates": [126.3114, 35.0686] }, "properties": { "name": "도리포", "waterType": "sea", "region": "전남 무안", "species": ["숭어", "낙지"], "lifestyleFishing": null, "source": "seed-sample" } },
    { "type": "Feature", "geometry": { "type": "Point", "coordinates": [126.4856, 35.9739] }, "properties": { "name": "비응항", "waterType": "sea", "region": "전북 군산", "species": ["숭어", "우럭", "주꾸미"], "lifestyleFishing": true, "source": "seed-sample" } },
    { "type": "Feature", "geometry": { "type": "Point", "coordinates": [126.5094, 36.3486] }, "properties": { "name": "대천항", "waterType": "sea", "region": "충남 보령", "species": ["주꾸미", "우럭"], "lifestyleFishing": true, "source": "seed-sample" } },
    { "type": "Feature", "geometry": { "type": "Point", "coordinates": [126.2442, 36.6797] }, "properties": { "name": "신진도항", "waterType": "sea", "region": "충남 태안", "species": ["주꾸미", "광어"], "lifestyleFishing": null, "source": "seed-sample" } },
    { "type": "Feature", "geometry": { "type": "Point", "coordinates": [126.5989, 37.4494] }, "properties": { "name": "연안부두", "waterType": "sea", "region": "인천", "species": ["숭어", "망둥어"], "lifestyleFishing": true, "source": "seed-sample" } },
    { "type": "Feature", "geometry": { "type": "Point", "coordinates": [126.3347, 37.7239] }, "properties": { "name": "선수선착장", "waterType": "sea", "region": "인천 강화", "species": ["숭어", "망둥어"], "lifestyleFishing": true, "source": "seed-sample" } },
    { "type": "Feature", "geometry": { "type": "Point", "coordinates": [128.5944, 38.2070] }, "properties": { "name": "동명항", "waterType": "sea", "region": "강원 속초", "species": ["임연수어", "도루묵", "오징어"], "lifestyleFishing": true, "source": "seed-sample" } },
    { "type": "Feature", "geometry": { "type": "Point", "coordinates": [128.7425, 38.0964] }, "properties": { "name": "남애항", "waterType": "sea", "region": "강원 양양", "species": ["도루묵", "열기"], "lifestyleFishing": null, "source": "seed-sample" } },
    { "type": "Feature", "geometry": { "type": "Point", "coordinates": [129.3228, 37.2019] }, "properties": { "name": "임원항", "waterType": "sea", "region": "강원 삼척", "species": ["열기", "노래미"], "lifestyleFishing": null, "source": "seed-sample" } },
    { "type": "Feature", "geometry": { "type": "Point", "coordinates": [126.4497, 33.4764] }, "properties": { "name": "이호테우 방파제", "waterType": "sea", "region": "제주", "species": ["자리돔", "벵에돔"], "lifestyleFishing": true, "source": "seed-sample" } },
    { "type": "Feature", "geometry": { "type": "Point", "coordinates": [126.5453, 33.2397] }, "properties": { "name": "법환포구", "waterType": "sea", "region": "서귀포", "species": ["자리돔", "벵에돔"], "lifestyleFishing": true, "source": "seed-sample" } },

    { "type": "Feature", "geometry": { "type": "Point", "coordinates": [127.9700, 36.9700] }, "properties": { "name": "충주호", "waterType": "freshwater", "region": "충북 충주", "species": ["배스", "블루길", "쏘가리"], "lifestyleFishing": null, "source": "seed-sample" } },
    { "type": "Feature", "geometry": { "type": "Point", "coordinates": [127.8200, 37.9500] }, "properties": { "name": "소양호", "waterType": "freshwater", "region": "강원 춘천", "species": ["빙어", "쏘가리", "배스"], "lifestyleFishing": null, "source": "seed-sample" } },
    { "type": "Feature", "geometry": { "type": "Point", "coordinates": [127.5700, 36.4800] }, "properties": { "name": "대청호", "waterType": "freshwater", "region": "대전/충북 보은", "species": ["배스", "붕어", "메기"], "lifestyleFishing": null, "source": "seed-sample" } },
    { "type": "Feature", "geometry": { "type": "Point", "coordinates": [127.6900, 38.1150] }, "properties": { "name": "파로호", "waterType": "freshwater", "region": "강원 화천", "species": ["쏘가리", "배스"], "lifestyleFishing": null, "source": "seed-sample" } },
    { "type": "Feature", "geometry": { "type": "Point", "coordinates": [126.8350, 36.6500] }, "properties": { "name": "예당저수지", "waterType": "freshwater", "region": "충남 예산", "species": ["배스", "붕어"], "lifestyleFishing": true, "source": "seed-sample" } },
    { "type": "Feature", "geometry": { "type": "Point", "coordinates": [128.0200, 35.5800] }, "properties": { "name": "합천호", "waterType": "freshwater", "region": "경남 합천", "species": ["배스", "블루길"], "lifestyleFishing": null, "source": "seed-sample" } },
    { "type": "Feature", "geometry": { "type": "Point", "coordinates": [128.8200, 36.6150] }, "properties": { "name": "안동호", "waterType": "freshwater", "region": "경북 안동", "species": ["쏘가리", "배스"], "lifestyleFishing": null, "source": "seed-sample" } },
    { "type": "Feature", "geometry": { "type": "Point", "coordinates": [128.0000, 35.1350] }, "properties": { "name": "진양호", "waterType": "freshwater", "region": "경남 진주", "species": ["배스", "붕어"], "lifestyleFishing": null, "source": "seed-sample" } },
    { "type": "Feature", "geometry": { "type": "Point", "coordinates": [126.7150, 35.0150] }, "properties": { "name": "나주호", "waterType": "freshwater", "region": "전남 나주", "species": ["배스", "붕어"], "lifestyleFishing": null, "source": "seed-sample" } },
    { "type": "Feature", "geometry": { "type": "Point", "coordinates": [126.7850, 35.4150] }, "properties": { "name": "장성호", "waterType": "freshwater", "region": "전남 장성", "species": ["배스", "붕어"], "lifestyleFishing": null, "source": "seed-sample" } },
    { "type": "Feature", "geometry": { "type": "Point", "coordinates": [127.3350, 37.7450] }, "properties": { "name": "의암호", "waterType": "freshwater", "region": "강원 춘천", "species": ["배스", "쏘가리"], "lifestyleFishing": true, "source": "seed-sample" } },
    { "type": "Feature", "geometry": { "type": "Point", "coordinates": [127.4350, 37.7350] }, "properties": { "name": "청평호", "waterType": "freshwater", "region": "경기 가평", "species": ["배스", "붕어"], "lifestyleFishing": true, "source": "seed-sample" } },
    { "type": "Feature", "geometry": { "type": "Point", "coordinates": [127.2600, 37.5350] }, "properties": { "name": "팔당호", "waterType": "freshwater", "region": "경기 하남/남양주", "species": ["배스", "붕어"], "lifestyleFishing": true, "source": "seed-sample" } },
    { "type": "Feature", "geometry": { "type": "Point", "coordinates": [127.2150, 37.0450] }, "properties": { "name": "고삼저수지", "waterType": "freshwater", "region": "경기 안성", "species": ["붕어", "배스"], "lifestyleFishing": null, "source": "seed-sample" } },
    { "type": "Feature", "geometry": { "type": "Point", "coordinates": [126.6900, 36.0450] }, "properties": { "name": "금강 하구둑", "waterType": "freshwater", "region": "충남 서천/전북 군산", "species": ["붕어", "숭어"], "lifestyleFishing": true, "source": "seed-sample" } }
  ]
}
